[{"OBJECT_NAME":"STARLINK-31363","OBJECT_ID":"2024-093A","EPOCH":"2026-03-09T16:49:05.556864","MEAN_MOTION":15.2756469,"ECCENTRICITY":0.00011059,"INCLINATION":43.0027,"RA_OF_ASC_NODE":205.6275,"ARG_OF_PERICENTER":210.0856,"MEAN_ANOMALY":149.9932,"EPHEMERIS_TYPE":0,"CLASSIFICATION_TYPE":"U","NORAD_CAT_ID":59782,"ELEMENT_SET_NO":999,"REV_AT_EPOCH":10273,"BSTAR":-6.8521965e-5,"MEAN_MOTION_DOT":-2.146e-5,"MEAN_MOTION_DDOT":0},{"OBJECT_NAME":"TRANSPORTER-1 OBJECT AA","OBJECT_ID":"2021-006AA","EPOCH":"2026-03-09T22:58:14.761920","MEAN_MOTION":15.29982294,"ECCENTRICITY":0.00086604,"INCLINATION":97.2381,"RA_OF_ASC_NODE":112.457,"ARG_OF_PERICENTER":185.709,"MEAN_ANOMALY":174.4054,"EPHEMERIS_TYPE":0,"CLASSIFICATION_TYPE":"U","NORAD_CAT_ID":47437,"ELEMENT_SET_NO":999,"REV_AT_EPOCH":28414,"BSTAR":0.0002197941,"MEAN_MOTION_DOT":6.312e-5,"MEAN_MOTION_DDOT":0}]
